STARLINK-2476           
1 48134U 21027AU  26068.52710082 -.00000610  00000+0 -84653-5 0  9998
2 48134  53.1609 166.0280 0001733  85.9786 274.1413 15.30213621272485
TEVEL2-4                
1 63213U 25052D   26068.69417973  .00020990  00000+0  70363-3 0  9998
2 63213  97.4009 325.1237 0004733  95.3468 264.8313 15.30925813 54879
