[{"OBJECT_NAME":"STARLINK-2476","OBJECT_ID":"2021-027AU","EPOCH":"2026-03-09T12:39:01.510848","MEAN_MOTION":15.30213621,"ECCENTRICITY":0.00017332,"INCLINATION":53.1609,"RA_OF_ASC_NODE":166.028,"ARG_OF_PERICENTER":85.9786,"MEAN_ANOMALY":274.1413,"EPHEMERIS_TYPE":0,"CLASSIFICATION_TYPE":"U","NORAD_CAT_ID":48134,"ELEMENT_SET_NO":999,"REV_AT_EPOCH":27248,"BSTAR":-8.465277e-6,"MEAN_MOTION_DOT":-6.1e-6,"MEAN_MOTION_DDOT":0},{"OBJECT_NAME":"TEVEL2-4","OBJECT_ID":"2025-052D","EPOCH":"2026-03-09T16:39:37.129536","MEAN_MOTION":15.30925813,"ECCENTRICITY":0.0004733,"INCLINATION":97.4009,"RA_OF_ASC_NODE":325.1237,"ARG_OF_PERICENTER":95.3468,"MEAN_ANOMALY":264.8313,"EPHEMERIS_TYPE":0,"CLASSIFICATION_TYPE":"U","NORAD_CAT_ID":63213,"ELEMENT_SET_NO":999,"REV_AT_EPOCH":5487,"BSTAR":0.00070362503,"MEAN_MOTION_DOT":0.0002099,"MEAN_MOTION_DDOT":0}]
